#aV2013  5 17  0  0  0.00000000     288 DD+AD WGS84 FIT  NGA
## 1740 432000.00000000   300.00000000 56429 0.0000000000000
+   30     1  2  3  4  5  6  7  8  9 10 11 12 13 14 15 16 17
+         18 19 20 21 22 23 24 25 26 28 29 31 32  0  0  0  0
+          0  0  0  0  0  0  0  0  0  0  0  0  0  0  0  0  0
+          0  0  0  0  0  0  0  0  0  0  0  0  0  0  0  0  0
+          0  0  0  0  0  0  0  0  0  0  0  0  0  0  0  0  0
++         2  2  2  2  2  2  2  2  2  2  2  2  2  2  2  2  2
++         2  2  2  2  2  2  2  2  2  2  2  2  2  2  2  0  0
++         0  0  0  0  0  0  0  0  0  0  0  0  0  0  0  0  0
++         0  0  0  0  0  0  0  0  0  0  0  0  0  0  0  0  0
++         0  0  0  0  0  0  0  0  0  0  0  0  0  0  0  0  0
%c cc cc ccc ccc cccc cccc cccc cccc ccccc ccccc ccccc ccccc
%c cc cc ccc ccc cccc cccc cccc cccc ccccc ccccc ccccc ccccc
%f  0.0000000  0.000000000  0.00000000000  0.000000000000000
%f  0.0000000  0.000000000  0.00000000000  0.000000000000000
%i    0    0    0    0      0      0      0      0         0
%i    0    0    0    0      0      0      0      0         0
/*      NGA, ST. LOUIS,MO.                                  
/*   EPHEMERIS COMPUTED FROM  1 DAYS OF DATA
/*   EPOCHA SMOOTHER  
/* CCCCCCCCCCCCCCCCCCCCCCCCCCCCCCCCCCCCCCCCCCCCCCCCCCCCCCCCC
*  2013  5 17 20 30  0.00000000                                                 
P  1   2019.841462 -16564.369587 -20660.265955     27.168848                    
V  1  24511.642335  -9361.210967   9994.120607      0.041069                    
P  2 -21760.129088  13896.432746   5143.883023    432.620340                    
V  2  -7399.729266   -880.692291 -30652.599441      0.018370                    
P  3   9357.934159 -20585.775409  13240.904618    208.146855                    
V  3   3520.190190  17741.961532  24385.565859      0.050396                    
P  4 -25363.752833   5983.588161  -6133.431865    220.641170                    
V  4   5562.003638  -5794.833861 -29760.619178      0.104238                    
P  5 -12170.274836  10010.168457  21366.348207   -394.858295                    
V  5 -21549.735458 -16636.920186  -4335.009837     -0.010048                    
P  6  13541.529812 -14732.121666  17365.713048    227.917725                    
V  6    921.832113  22183.901863  18556.017300     -0.163684                    
P  7 -14286.767931  -9246.474870  20511.735969    214.878327                    
V  7  23709.694226 -10270.740348  11616.797142      0.042517                    
P  8 -22386.549901  -3098.613266  14536.733895      6.193063                    
V  8  16988.382035  -5919.485258  24510.036958      0.001348                    
P  9 -24859.275329   9005.817938   2265.693444    241.547300                    
V  9   2447.784520  -3293.359935  32048.491091      0.025878                    
P 10 -22500.689685  -5590.902416  13029.847954    -80.189404                    
V 10 -11809.748835 -12336.783546 -24713.138113     -0.013867                    
P 11   6499.399252 -21195.433172 -14876.748372   -382.815411                    
V 11  16493.715875  -9123.364880  21100.368232     -0.037396                    
P 12   4869.586107  19162.159638 -17872.671955    134.315539                    
V 12 -18208.369605 -13242.907166 -18992.663399      0.020684                    
P 13  -5730.095700 -20827.281711  15225.565307    118.307658                    
V 13   5951.398328 -18746.338385 -23311.722859     -0.036469                    
P 14  14647.904572   2324.020756 -21835.403712    220.867992                    
V 14  -5278.842935  27661.654017   -735.776637     -0.001385                    
P 15  -3675.111605  26107.433991   1689.405679   -119.523999                    
V 15  -3435.739692  -2533.633119  31380.050650     -0.015373                    
P 16  12777.964941  -8187.229946  21813.735711   -252.048639                    
V 16  21084.536359  17866.979602  -5307.564573      0.002408                    
P 17 -14819.817109  -2408.357663 -21689.306539     18.476372                    
V 17   4405.203956 -27706.191402   -161.308724     -0.038557                    
P 18  21159.354746  16371.443376    441.730242    254.171903                    
V 18  -2203.862702   2786.120632  30771.959193      0.018707                    
P 19   8566.332188 -24456.570189   4581.538165   -373.712514                    
V 19   1736.913358   6515.326319  31351.253154     -0.030737                    
P 20  -9172.244026 -19909.281368 -15220.909958     98.551112                    
V 20  17283.604873   8510.258035 -21722.920548      0.020192                    
P 21  18256.566861   7313.887733  18645.677271   -298.057189                    
V 21 -20081.660054  10134.073507  15657.475284     -0.021265                    
P 22  23193.383373   7956.801856 -10191.014055    168.215141                    
V 22   8509.032275  10698.824659  27051.671346      0.013549                    
P 23  -1474.435494 -25412.505573   6884.747654     84.865738                    
V 23   4278.252010  -8259.022746 -30251.015598     -0.036140                    
P 24  -6045.130862  17320.786034 -19204.251386     -6.527674                    
V 24 -22908.331196   8452.281425  14883.753395     -0.007067                    
P 25  15295.209047  19551.536855  -9640.760127     98.795785                    
V 25 -10975.050832  -5549.007499 -28721.809692      0.042488                    
P 26 -12624.864054  19287.954577  12247.473172     16.376048                    
V 26   1332.667116 -16781.092493  26754.385407      0.153752                    
P 28 -22198.963106 -12586.996160  -7098.847703    259.411763                    
V 28  -6164.366245  -7785.526068  30416.671620      0.033353                    
P 29   6483.835799  21361.785656  14479.978378    436.507075                    
V 29  -5013.072677  17671.612914 -23864.948863      0.034627                    
P 31  25402.859452  -6816.336279  -4488.935849    314.679396                    
V 31  -4731.790219   3963.310731 -31326.929422      0.013306                    
P 32    131.098528 -18377.081772 -19219.926772   -556.409894                    
V 32  19069.258072  15526.112220 -14098.378664     -0.017209                    
EOF
